{"type": "FeatureCollection", "features": [ {"type": "Feature", "properties": {"norad_id": 34303, "name": "COSMOS 2251 DEB", "group": "cosmos-2251-debris", "lat": -5.138338042249542, "lon": 112.10850193996764, "alt_km": 755.2931809343572, "timestamp": "2025-12-11T08:58:27.519274+00:00", "meta": {"OBJECT_NAME": "COSMOS 2251 DEB", "OBJECT_ID": "1993-036MZ", "EPOCH": "2025-12-11T05:08:08.203776", "MEAN_MOTION": 14.54414887, "ECCENTRICITY": 0.0134993, "INCLINATION": 74.0058, "RA_OF_ASC_NODE": 290.9336, "ARG_OF_PERICENTER": 69.6692, "MEAN_ANOMALY": 357.0446, "EPHEMERIS_TYPE": 0, "CLASSIFICATION_TYPE": "U", "NORAD_CAT_ID": 34303, "ELEMENT_SET_NO": 999, "REV_AT_EPOCH": 87940, "BSTAR": 0.0022105, "MEAN_MOTION_DOT": 0.00010605, "MEAN_MOTION_DDOT": 0}, "tle": {"line1": "1 34303U 93036MZ  25345.21398384  .00010605  00000+0  22105-2 0  9994", "line2": "2 34303  74.0058 290.9336 0134993  69.6692 357.0446 14.54414887879401"}}, "geometry": {"type": "Point", "coordinates": [112.10850193996764, -5.138338042249542]}}, {"type": "Feature", "properties": {"norad_id": 34304, "name": "COSMOS 2251 DEB", "group": "cosmos-2251-debris", "lat": 17.30851710615278, "lon": 130.24004873995895, "alt_km": 803.6695231791018, "timestamp": "2025-12-11T08:58:27.519284+00:00", "meta": {"OBJECT_NAME": "COSMOS 2251 DEB", "OBJECT_ID": "1993-036NA", "EPOCH": "2025-12-11T03:01:44.391072", "MEAN_MOTION": 14.37833855, "ECCENTRICITY": 0.0128899, "INCLINATION": 74.0134, "RA_OF_ASC_NODE": 125.5713, "ARG_OF_PERICENTER": 263.6755, "MEAN_ANOMALY": 271.3736, "EPHEMERIS_TYPE": 0, "CLASSIFICATION_TYPE": "U", "NORAD_CAT_ID": 34304, "ELEMENT_SET_NO": 999, "REV_AT_EPOCH": 87273, "BSTAR": 0.0023198, "MEAN_MOTION_DOT": 7.678e-05, "MEAN_MOTION_DDOT": 0}, "tle": {"line1": "1 34304U 93036NA  25345.12620823  .00007678  00000+0  23198-2 0  9990", "line2": "2 34304  74.0134 125.5713 0128899 263.6755 271.3736 14.37833855872733"}}, "geometry": {"type": "Point", "coordinates": [130.24004873995895, 17.30851710615278]}}, {"type": "Feature", "properties": {"norad_id": 34307, "name": "COSMOS 2251 DEB", "group": "cosmos-2251-debris", "lat": -73.06713252760497, "lon": -114.59542519268655, "alt_km": 1240.6361978025816, "timestamp": "2025-12-11T08:58:27.519295+00:00", "meta": {"OBJECT_NAME": "COSMOS 2251 DEB", "OBJECT_ID": "1993-036ND", "EPOCH": "2025-12-10T09:20:15.213408", "MEAN_MOTION": 13.54315638, "ECCENTRICITY": 0.0392135, "INCLINATION": 74.0532, "RA_OF_ASC_NODE": 316.8871, "ARG_OF_PERICENTER": 148.3468, "MEAN_ANOMALY": 3.9089, "EPHEMERIS_TYPE": 0, "CLASSIFICATION_TYPE": "U", "NORAD_CAT_ID": 34307, "ELEMENT_SET_NO": 999, "REV_AT_EPOCH": 82830, "BSTAR": 0.00082870647, "MEAN_MOTION_DOT": 9.03e-06, "MEAN_MOTION_DDOT": 0}, "tle": {"line1": "1 34307U 93036ND  25344.38906497  .00000903  00000+0  82871-3 0  9992", "line2": "2 34307  74.0532 316.8871 0392135 148.3468   3.9089 13.54315638828300"}}, "geometry": {"type": "Point", "coordinates": [-114.59542519268655, -73.06713252760497]}}, {"type": "Feature", "properties": {"norad_id": 34313, "name": "COSMOS 2251 DEB", "group": "cosmos-2251-debris", "lat": -28.058655891591005, "lon": -60.45050759156036, "alt_km": 518.2126921253985, "timestamp": "2025-12-11T08:58:27.519305+00:00", "meta": {"OBJECT_NAME": "COSMOS 2251 DEB", "OBJECT_ID": "1993-036NK", "EPOCH": "2025-12-11T04:21:36.276768", "MEAN_MOTION": 15.18656736, "ECCENTRICITY": 0.0011591, "INCLINATION": 73.9729, "RA_OF_ASC_NODE": 308.7667, "ARG_OF_PERICENTER": 82.9491, "MEAN_ANOMALY": 277.3023, "EPHEMERIS_TYPE": 0, "CLASSIFICATION_TYPE": "U", "NORAD_CAT_ID": 34313, "ELEMENT_SET_NO": 999, "REV_AT_EPOCH": 89041, "BSTAR": 0.0060286, "MEAN_MOTION_DOT": 0.00127338, "MEAN_MOTION_DDOT": 0}, "tle": {"line1": "1 34313U 93036NK  25345.18166987  .00127338  00000+0  60286-2 0  9997", "line2": "2 34313  73.9729 308.7667 0011591  82.9491 277.3023 15.18656736890414"}}, "geometry": {"type": "Point", "coordinates": [-60.45050759156036, -28.058655891591005]}}, {"type": "Feature", "properties": {"norad_id": 34314, "name": "COSMOS 2251 DEB", "group": "cosmos-2251-debris", "lat": 45.25378796048533, "lon": 114.00191408828249, "alt_km": 810.536031741236, "timestamp": "2025-12-11T08:58:27.519315+00:00", "meta": {"OBJECT_NAME": "COSMOS 2251 DEB", "OBJECT_ID": "1993-036NL", "EPOCH": "2025-12-11T02:09:39.538944", "MEAN_MOTION": 14.17417945, "ECCENTRICITY": 0.010274, "INCLINATION": 74.0068, "RA_OF_ASC_NODE": 311.3274, "ARG_OF_PERICENTER": 57.3872, "MEAN_ANOMALY": 65.7399, "EPHEMERIS_TYPE": 0, "CLASSIFICATION_TYPE": "U", "NORAD_CAT_ID": 34314, "ELEMENT_SET_NO": 999, "REV_AT_EPOCH": 86634, "BSTAR": 0.00084232, "MEAN_MOTION_DOT": 1.773e-05, "MEAN_MOTION_DDOT": 0}, "tle": {"line1": "1 34314U 93036NL  25345.09004096  .00001773  00000+0  84232-3 0  9992", "line2": "2 34314  74.0068 311.3274 0102740  57.3872  65.7399 14.17417945866348"}}, "geometry": {"type": "Point", "coordinates": [114.00191408828249, 45.25378796048533]}}, {"type": "Feature", "properties": {"norad_id": 34316, "name": "COSMOS 2251 DEB", "group": "cosmos-2251-debris", "lat": -40.91243110583698, "lon": -34.70995867081275, "alt_km": 600.4234641555495, "timestamp": "2025-12-11T08:58:27.519326+00:00", "meta": {"OBJECT_NAME": "COSMOS 2251 DEB", "OBJECT_ID": "1993-036NN", "EPOCH": "2025-12-10T23:30:32.937696", "MEAN_MOTION": 14.91739436, "ECCENTRICITY": 0.0008248, "INCLINATION": 74.0655, "RA_OF_ASC_NODE": 340.4146, "ARG_OF_PERICENTER": 65.7346, "MEAN_ANOMALY": 294.4697, "EPHEMERIS_TYPE": 0, "CLASSIFICATION_TYPE": "U", "NORAD_CAT_ID": 34316, "ELEMENT_SET_NO": 999, "REV_AT_EPOCH": 89183, "BSTAR": 0.0022841, "MEAN_MOTION_DOT": 0.00023063, "MEAN_MOTION_DDOT": 0}, "tle": {"line1": "1 34316U 93036NN  25344.97954789  .00023063  00000+0  22841-2 0  9996", "line2": "2 34316  74.0655 340.4146 0008248  65.7346 294.4697 14.91739436891838"}}, "geometry": {"type": "Point", "coordinates": [-34.70995867081275, -40.91243110583698]}}, {"type": "Feature", "properties": {"norad_id": 34317, "name": "COSMOS 2251 DEB", "group": "cosmos-2251-debris", "lat": -36.525511494411, "lon": 25.67581486455643, "alt_km": 913.853533086798, "timestamp": "2025-12-11T08:58:27.519336+00:00", "meta": {"OBJECT_NAME": "COSMOS 2251 DEB", "OBJECT_ID": "1993-036NP", "EPOCH": "2025-12-10T21:42:29.938752", "MEAN_MOTION": 13.65119221, "ECCENTRICITY": 0.0336458, "INCLINATION": 73.9248, "RA_OF_ASC_NODE": 38.7793, "ARG_OF_PERICENTER": 28.3958, "MEAN_ANOMALY": 150.8481, "EPHEMERIS_TYPE": 0, "CLASSIFICATION_TYPE": "U", "NORAD_CAT_ID": 34317, "ELEMENT_SET_NO": 999, "REV_AT_EPOCH": 83594, "BSTAR": 0.00052125, "MEAN_MOTION_DOT": 6e-06, "MEAN_MOTION_DDOT": 0}, "tle": {"line1": "1 34317U 93036NP  25344.90451318  .00000600  00000+0  52125-3 0  9991", "line2": "2 34317  73.9248  38.7793 0336458  28.3958 150.8481 13.65119221835941"}}, "geometry": {"type": "Point", "coordinates": [25.67581486455643, -36.525511494411]}}, {"type": "Feature", "properties": {"norad_id": 34321, "name": "COSMOS 2251 DEB", "group": "cosmos-2251-debris", "lat": -46.06712929371733, "lon": 141.63358648324794, "alt_km": 721.6069067639373, "timestamp": "2025-12-11T08:58:27.519346+00:00", "meta": {"OBJECT_NAME": "COSMOS 2251 DEB", "OBJECT_ID": "1993-036NT", "EPOCH": "2025-12-11T04:45:53.278848", "MEAN_MOTION": 14.50043953, "ECCENTRICITY": 0.0015761, "INCLINATION": 74.0279, "RA_OF_ASC_NODE": 159.2572, "ARG_OF_PERICENTER": 288.8854, "MEAN_ANOMALY": 187.3895, "EPHEMERIS_TYPE": 0, "CLASSIFICATION_TYPE": "U", "NORAD_CAT_ID": 34321, "ELEMENT_SET_NO": 999, "REV_AT_EPOCH": 88464, "BSTAR": 0.00085439, "MEAN_MOTION_DOT": 3.291e-05, "MEAN_MOTION_DDOT": 0}, "tle": {"line1": "1 34321U 93036NT  25345.19853332  .00003291  00000+0  85439-3 0  9993", "line2": "2 34321  74.0279 159.2572 0015761 288.8854 187.3895 14.50043953884643"}}, "geometry": {"type": "Point", "coordinates": [141.63358648324794, -46.06712929371733]}}, {"type": "Feature", "properties": {"norad_id": 34323, "name": "COSMOS 2251 DEB", "group": "cosmos-2251-debris", "lat": -26.60505712056413, "lon": -45.91644764858804, "alt_km": 619.3027252491875, "timestamp": "2025-12-11T08:58:27.519357+00:00", "meta": {"OBJECT_NAME": "COSMOS 2251 DEB", "OBJECT_ID": "1993-036NV", "EPOCH": "2025-12-10T12:51:31.760064", "MEAN_MOTION": 14.74301741, "ECCENTRICITY": 0.0059598, "INCLINATION": 73.9532, "RA_OF_ASC_NODE": 127.4386, "ARG_OF_PERICENTER": 172.0021, "MEAN_ANOMALY": 268.5797, "EPHEMERIS_TYPE": 0, "CLASSIFICATION_TYPE": "U", "NORAD_CAT_ID": 34323, "ELEMENT_SET_NO": 999, "REV_AT_EPOCH": 88407, "BSTAR": 0.0039505, "MEAN_MOTION_DOT": 0.00026981, "MEAN_MOTION_DDOT": 0}, "tle": {"line1": "1 34323U 93036NV  25344.53578426  .00026981  00000+0  39505-2 0  9993", "line2": "2 34323  73.9532 127.4386 0059598 172.0021 268.5797 14.74301741884079"}}, "geometry": {"type": "Point", "coordinates": [-45.91644764858804, -26.60505712056413]}}, {"type": "Feature", "properties": {"norad_id": 34325, "name": "COSMOS 2251 DEB", "group": "cosmos-2251-debris", "lat": 42.888186409506176, "lon": -149.1945155024967, "alt_km": 1010.7329482542209, "timestamp": "2025-12-11T08:58:27.519367+00:00", "meta": {"OBJECT_NAME": "COSMOS 2251 DEB", "OBJECT_ID": "1993-036NX", "EPOCH": "2025-12-11T00:56:14.308800", "MEAN_MOTION": 14.04455405, "ECCENTRICITY": 0.0192403, "INCLINATION": 73.8713, "RA_OF_ASC_NODE": 195.8037, "ARG_OF_PERICENTER": 213.4655, "MEAN_ANOMALY": 299.7095, "EPHEMERIS_TYPE": 0, "CLASSIFICATION_TYPE": "U", "NORAD_CAT_ID": 34325, "ELEMENT_SET_NO": 999, "REV_AT_EPOCH": 85491, "BSTAR": 0.0024267, "MEAN_MOTION_DOT": 4.539e-05, "MEAN_MOTION_DDOT": 0}, "tle": {"line1": "1 34325U 93036NX  25345.03905450  .00004539  00000+0  24267-2 0  9996", "line2": "2 34325  73.8713 195.8037 0192403 213.4655 299.7095 14.04455405854916"}}, "geometry": {"type": "Point", "coordinates": [-149.1945155024967, 42.888186409506176]}}]}